NORAD_CAT_ID,OBJECT_NAME,OBJECT_TYPE,EPOCH,MEAN_MOTION,ECCENTRICITY,INCLINATION,RA_OF_ASC_NODE,ARG_OF_PERICENTER,MEAN_ANOMALY,BSTAR,MEAN_MOTION_DOT,MEAN_MOTION_DDOT,TLE_LINE0,TLE_LINE1,TLE_LINE2,SEMIMAJOR_AXIS,PERIOD,APOGEE,PERIGEE,DECAYED
55653.0,STARLINK-5067,PAYLOAD,2024-06-23 14:31:12,14.98332528,0.0003135,70.0003,317.8292,264.9688,95.1113,3.3177e-05,3.03e-06,0.0,0 STARLINK-5067,1 55653U 23021AB  24175.60500503  .00000303  00000-0  33177-4 0  9991,2 55653  70.0003 317.8292 0003135 264.9688  95.1113 14.98332528 75314,6950.185,96.107,574.229,569.871,0.0
55653.0,STARLINK-5067,PAYLOAD,2024-06-23 19:19:36,14.98334723,0.0003102,70.0004,317.3243,264.0408,96.0398,5.5647e-05,5.71e-06,0.0,0 STARLINK-5067,1 55653U 23021AB  24175.80528259  .00000571  00000-0  55647-4 0  9994,2 55653  70.0004 317.3243 0003102 264.0408  96.0398 14.98334723 75045,6950.178,96.107,574.199,569.887,0.0
55653.0,STARLINK-5067,PAYLOAD,2024-06-24 14:33:13,14.98333033,0.0003109,70.0005,315.305,263.9189,96.1616,6.5488e-05,6.89e-06,0.0,0 STARLINK-5067,1 55653U 23021AB  24176.60640190  .00000689  00000-0  65488-4 0  9996,2 55653  70.0005 315.3050 0003109 263.9189  96.1616 14.98333033 75464,6950.184,96.107,574.209,569.888,0.0
55653.0,STARLINK-5067,PAYLOAD,2024-06-24 19:21:37,14.9833318,0.0003115,70.0005,314.8,264.281,95.7994,6.3121e-05,6.6e-06,0.0,0 STARLINK-5067,1 55653U 23021AB  24176.80668156  .00000660  00000-0  63121-4 0  9991,2 55653  70.0005 314.8000 0003115 264.2810  95.7994 14.98333180 75192,6950.183,96.107,574.213,569.883,0.0
55653.0,STARLINK-5067,PAYLOAD,2024-06-25 14:35:14,14.98331032,0.0003033,70.0007,312.7799,264.0193,96.0621,1.6197e-05,1e-06,0.0,0 STARLINK-5067,1 55653U 23021AB  24177.60780365  .00000100  00000-0  16197-4 0  9997,2 55653  70.0007 312.7799 0003033 264.0193  96.0621 14.98331032 75619,6950.19,96.107,574.163,569.947,0.0
55653.0,STARLINK-5067,PAYLOAD,2024-06-25 17:47:30,14.98331912,0.0003015,70.0008,312.4433,264.0435,96.0381,2.5972e-05,2.17e-06,0.0,0 STARLINK-5067,1 55653U 23021AB  24177.74132270  .00000217  00000-0  25972-4 0  9998,2 55653  70.0008 312.4433 0003015 264.0435  96.0381 14.98331912 75633,6950.187,96.107,574.147,569.956,0.0
55653.0,STARLINK-5067,PAYLOAD,2024-06-26 11:24:58,14.98332634,0.0002963,70.0011,310.5926,258.8722,101.2104,4.5014e-05,4.44e-06,0.0,0 STARLINK-5067,1 55653U 23021AB  24178.47568045  .00000444  00000-0  45014-4 0  9993,2 55653  70.0011 310.5926 0002963 258.8722 101.2104 14.98332634 75447,6950.185,96.107,574.109,569.99,0.0
55653.0,STARLINK-5067,PAYLOAD,2024-06-27 13:03:08,14.98329049,0.0003242,70.0005,307.8989,260.9004,99.1788,3.4817e-06,-5.1e-07,0.0,0 STARLINK-5067,1 55653U 23021AB  24179.54384406 -.00000051  00000-0  34817-5 0  9994,2 55653  70.0005 307.8989 0003242 260.9004  99.1788 14.98329049 75603,6950.196,96.107,574.314,569.808,0.0
55653.0,STARLINK-5067,PAYLOAD,2024-06-27 17:51:32,14.98328038,0.0003218,70.0004,307.393,266.7475,93.3316,-1.127e-06,-1.06e-06,0.0,0 STARLINK-5067,1 55653U 23021AB  24179.74412535 -.00000106  00000-0 -11270-5 0  9991,2 55653  70.0004 307.3930 0003218 266.7475  93.3316 14.98328038 75938,6950.199,96.107,574.301,569.827,0.0
55653.0,STARLINK-5067,PAYLOAD,2024-06-28 13:05:08,14.9833129,0.0003436,69.9999,305.3724,268.4338,91.6427,9.7268e-05,1.068e-05,0.0,0 STARLINK-5067,1 55653U 23021AB  24180.54524124  .00001068  00000-0  97268-4 0  9995,2 55653  69.9999 305.3724 0003436 268.4338  91.6427 14.98331290 75754,6950.189,96.107,574.442,569.666,0.0
55653.0,STARLINK-5067,PAYLOAD,2024-06-28 14:41:16,14.98341484,0.0003612,69.9995,305.2034,268.7253,91.3493,0.00017018,1.939e-05,0.0,0 STARLINK-5067,1 55653U 23021AB  24180.61199256  .00001939  00000-0  17018-3 0  9998,2 55653  69.9995 305.2034 0003612 268.7253  91.3493 14.98341484 76069,6950.157,96.106,574.533,569.512,0.0
55653.0,STARLINK-5067,PAYLOAD,2024-06-28 17:53:31,14.9834522,0.0003455,69.9997,304.8667,268.6721,91.4042,0.00020699,2.379e-05,0.0,0 STARLINK-5067,1 55653U 23021AB  24180.74550847  .00002379  00000-0  20699-3 0  9997,2 55653  69.9997 304.8667 0003455 268.6721  91.4042 14.98345220 75783,6950.146,96.106,574.412,569.61,0.0
55653.0,STARLINK-5067,PAYLOAD,2024-06-29 01:54:12,14.98336452,0.0003545,69.9993,304.0251,270.7081,89.3671,0.00020067,2.303e-05,0.0,0 STARLINK-5067,1 55653U 23021AB  24181.07931076  .00002303  00000-0  20067-3 0  9997,2 55653  69.9993 304.0251 0003545 270.7081  89.3671 14.98336452 75830,6950.173,96.107,574.502,569.574,0.0
55653.0,STARLINK-5067,PAYLOAD,2024-06-29 13:07:09,14.98327415,0.0003304,69.9998,302.8486,268.1454,91.9327,4.3567e-05,4.27e-06,0.0,0 STARLINK-5067,1 55653U 23021AB  24181.54664287  .00000427  00000-0  43567-4 0  9992,2 55653  69.9998 302.8486 0003304 268.1454  91.9327 14.98327415 75903,6950.201,96.107,574.362,569.77,0.0
55653.0,STARLINK-5067,PAYLOAD,2024-06-29 14:43:18,14.9832699,0.0003475,69.9992,302.6791,269.6703,90.4058,4.6527e-05,4.62e-06,0.0,0 STARLINK-5067,1 55653U 23021AB  24181.61340312  .00000462  00000-0  46527-4 0  9998,2 55653  69.9992 302.6791 0003475 269.6703  90.4058 14.98326990 76213,6950.202,96.107,574.482,569.652,0.0
55653.0,STARLINK-5067,PAYLOAD,2024-06-29 17:55:33,14.9833008,0.0003218,69.9998,302.3417,268.8473,91.2317,6.0806e-05,6.33e-06,0.0,0 STARLINK-5067,1 55653U 23021AB  24181.74692084  .00000633  00000-0  60806-4 0  9994,2 55653  69.9998 302.3417 0003218 268.8473  91.2317 14.98330080 76235,6950.193,96.107,574.294,569.821,0.0
55653.0,STARLINK-5067,PAYLOAD,2024-06-30 14:45:18,14.98335158,0.0003295,69.9999,300.1538,269.9924,90.0857,-2.1004e-05,-3.44e-06,0.0,0 STARLINK-5067,1 55653U 23021AB  24182.61480058 -.00000344  00000-0 -21004-4 0  9995,2 55653  69.9999 300.1538 0003295 269.9924  90.0857 14.98335158 76365,6950.177,96.107,574.332,569.752,0.0
55653.0,STARLINK-5067,PAYLOAD,2024-06-30 17:57:34,14.98337655,0.0003129,69.9999,299.8171,267.4106,92.6695,-1.1594e-05,-2.31e-06,0.0,0 STARLINK-5067,1 55653U 23021AB  24182.74831859 -.00000231  00000-0 -11594-4 0  9996,2 55653  69.9999 299.8171 0003129 267.4106  92.6695 14.98337655 76084,6950.169,96.107,574.209,569.86,0.0
55653.0,STARLINK-5067,PAYLOAD,2024-07-01 13:11:11,14.98326814,0.0002875,70.0001,297.7973,270.636,89.447,6.9308e-05,7.34e-06,0.0,0 STARLINK-5067,1 55653U 23021AB  24183.54944328  .00000734  00000-0  69308-4 0  9993,2 55653  70.0001 297.7973 0002875 270.6360  89.4470 14.98326814 76207,6950.203,96.107,574.066,570.07,0.0
55653.0,STARLINK-5067,PAYLOAD,2024-07-01 14:47:19,14.98330959,0.0003067,69.9996,297.6292,269.0569,91.0238,0.00011906,1.328e-05,0.0,0 STARLINK-5067,1 55653U 23021AB  24183.61619934  .00001328  00000-0  11906-3 0  9993,2 55653  69.9996 297.6292 0003067 269.0569  91.0238 14.98330959 76517,6950.19,96.107,574.187,569.923,0.0
55653.0,STARLINK-5067,PAYLOAD,2024-07-01 17:59:35,14.9833125,0.0003095,69.9997,297.2927,268.8855,91.1949,0.00012246,1.368e-05,0.0,0 STARLINK-5067,1 55653U 23021AB  24183.74971934  .00001368  00000-0  12246-3 0  9990,2 55653  69.9997 297.2927 0003095 268.8855  91.1949 14.98331250 76532,6950.189,96.107,574.205,569.903,0.0
55653.0,STARLINK-5067,PAYLOAD,2024-07-02 13:13:13,14.98323402,0.0003014,70.0003,295.2737,267.7713,92.31,5.1904e-05,5.26e-06,0.0,0 STARLINK-5067,1 55653U 23021AB  24184.55084756  .00000526  00000-0  51904-4 0  9997,2 55653  70.0003 295.2737 0003014 267.7713  92.3100 14.98323402 76354,6950.213,96.107,574.173,569.984,0.0
55653.0,STARLINK-5067,PAYLOAD,2024-07-02 14:49:21,14.98326007,0.0002966,70.0003,295.1053,266.8069,93.275,4.7562e-05,4.74e-06,0.0,0 STARLINK-5067,1 55653U 23021AB  24184.61760615  .00000474  00000-0  47562-4 0  9996,2 55653  70.0003 295.1053 0002966 266.8069  93.2750 14.98326007 76662,6950.205,96.107,574.132,570.009,0.0
55653.0,STARLINK-5067,PAYLOAD,2024-07-02 18:01:37,14.98329453,0.0002982,70.0003,294.7688,266.0786,94.0032,7.7853e-05,8.36e-06,0.0,0 STARLINK-5067,1 55653U 23021AB  24184.75112329  .00000836  00000-0  77853-4 0  9992,2 55653  70.0003 294.7688 0002982 266.0786  94.0032 14.98329453 76689,6950.195,96.107,574.132,569.987,0.0
55653.0,STARLINK-5067,PAYLOAD,2024-07-03 16:27:29,14.98330065,0.0003079,70.0005,292.4124,267.3125,92.7682,8.8334e-05,9.61e-06,0.0,0 STARLINK-5067,1 55653U 23021AB  24185.68576216  .00000961  00000-0  88334-4 0  9999,2 55653  70.0005 292.4124 0003079 267.3125  92.7682 14.98330065 76823,6950.193,96.107,574.198,569.918,0.0
55653.0,STARLINK-5067,PAYLOAD,2024-07-04 00:28:10,14.98324945,0.0003251,69.9995,291.5709,267.1381,92.9406,0.00016576,1.885e-05,0.0,0 STARLINK-5067,1 55653U 23021AB  24186.01956376  .00001885  00000-0  16576-3 0  9990,2 55653  69.9995 291.5709 0003251 267.1381  92.9406 14.98324945 76579,6950.209,96.107,574.333,569.814,0.0
55653.0,STARLINK-5067,PAYLOAD,2024-07-04 14:53:22,14.98328816,0.0003463,69.9998,290.0562,276.1521,83.9243,7.7055e-05,8.26e-06,0.0,0 STARLINK-5067,1 55653U 23021AB  24186.62040353  .00000826  00000-0  77055-4 0  9990,2 55653  69.9998 290.0562 0003463 276.1521  83.9243 14.98328816 76967,6950.197,96.107,574.468,569.655,0.0
55653.0,STARLINK-5067,PAYLOAD,2024-07-04 16:29:30,14.9832967,0.0003245,69.9998,289.888,273.9208,86.158,8.9888e-05,9.8e-06,0.0,0 STARLINK-5067,1 55653U 23021AB  24186.68716279  .00000980  00000-0  89888-4 0  9991,2 55653  69.9998 289.8880 0003245 273.9208  86.1580 14.98329670 76970,6950.194,96.107,574.314,569.804,0.0
55653.0,STARLINK-5067,PAYLOAD,2024-07-05 00:30:10,14.98333273,0.0003225,69.9996,289.0445,266.6485,93.4305,3.1608e-05,2.84e-06,0.0,0 STARLINK-5067,1 55653U 23021AB  24187.02096057  .00000284  00000-0  31608-4 0  9999,2 55653  69.9996 289.0445 0003225 266.6485  93.4305 14.98333273 76724,6950.183,96.107,574.289,569.806,0.0
55653.0,STARLINK-5067,PAYLOAD,2024-07-05 13:19:15,14.98332983,0.0003203,69.9996,287.6978,268.781,91.2982,3.2817e-05,2.99e-06,0.0,0 STARLINK-5067,1 55653U 23021AB  24187.55504125  .00000299  00000-0  32817-4 0  9996,2 55653  69.9996 287.6978 0003203 268.7810  91.2982 14.98332983 77107,6950.184,96.107,574.275,569.823,0.0
